{"water":{"type":"FeatureCollection","features":[{"geometry":{"type":"Polygon","coordinates":[[[-91.13,-1.02],[-90.91,-0.94],[-90.8,-0.75],[-90.86,-0.67],[-90.96,-0.6],[-90.97,-0.58],[-90.95,-0.53],[-90.98,-0.42],[-91.18,-0.22],[-91.21,-0.04],[-91.25,0.0],[-90.0,0.0],[-90.0,-40.98],[-135.0,-40.98],[-135.0,0.0],[-91.6,0.0],[-91.59,-0.01],[-91.55,-0.05],[-91.47,-0.01],[-91.43,-0.02],[-91.37,-0.29],[-91.25,-0.37],[-91.2,-0.5],[-91.12,-0.56],[-91.14,-0.62],[-91.33,-0.71],[-91.46,-0.8],[-91.5,-0.86],[-91.48,-0.92],[-91.42,-1.0],[-91.37,-1.02],[-91.13,-1.02]],[[-109.28,-27.1],[-109.39,-27.07],[-109.43,-27.12],[-109.43,-27.17],[-109.28,-27.14],[-109.22,-27.1],[-109.28,-27.1]],[[-128.3,-24.33],[-128.33,-24.32],[-128.35,-24.34],[-128.34,-24.37],[-128.32,-24.4],[-128.3,-24.41],[-128.29,-24.4],[-128.29,-24.36],[-128.3,-24.33]],[[-90.43,-1.24],[-90.48,-1.22],[-90.52,-1.3],[-90.46,-1.34],[-90.42,-1.34],[-90.38,-1.29],[-90.4,-1.26],[-90.43,-1.24]],[[-91.4,-0.32],[-91.46,-0.26],[-91.65,-0.28],[-91.65,-0.31],[-91.65,-0.39],[-91.61,-0.44],[-91.53,-0.48],[-91.43,-0.46],[-91.4,-0.42],[-91.4,-0.32]],[[-90.81,-0.33],[-90.62,-0.36],[-90.57,-0.33],[-90.55,-0.28],[-90.67,-0.19],[-90.78,-0.16],[-90.82,-0.19],[-90.87,-0.27],[-90.81,-0.33]],[[-90.54,-0.68],[-90.39,-0.77],[-90.33,-0.77],[-90.32,-0.76],[-90.26,-0.74],[-90.19,-0.66],[-90.19,-0.54],[-90.27,-0.48],[-90.47,-0.52],[-90.53,-0.58],[-90.54,-0.68]]]},"type":"Feature","properties":{"source":"naturalearthdata.com","kind":"ocean","area":1444195503964160,"sort_rank":200,"min_zoom":0.0,"id":1}},{"geometry":{"type":"LineString","coordinates":[[-90.27,-0.48],[-90.47,-0.52],[-90.53,-0.58],[-90.54,-0.68],[-90.39,-0.77],[-90.33,-0.77],[-90.32,-0.76],[-90.26,-0.74],[-90.19,-0.66],[-90.19,-0.54],[-90.27,-0.48]]},"type":"Feature","properties":{"kind":"ocean","sort_rank":205,"source":"naturalearthdata.com","min_zoom":0.0,"boundary":true,"id":1146}},{"geometry":{"type":"LineString","coordinates":[[-91.4,-0.32],[-91.46,-0.26],[-91.65,-0.28],[-91.65,-0.31],[-91.65,-0.39],[-91.61,-0.44],[-91.53,-0.48],[-91.43,-0.46],[-91.4,-0.42],[-91.4,-0.32]]},"type":"Feature","properties":{"kind":"ocean","sort_rank":205,"source":"naturalearthdata.com","min_zoom":0.0,"boundary":true,"id":1149}},{"geometry":{"type":"LineString","coordinates":[[-90.48,-1.22],[-90.52,-1.3],[-90.46,-1.34],[-90.42,-1.34],[-90.38,-1.29],[-90.4,-1.26],[-90.43,-1.24],[-90.48,-1.22]]},"type":"Feature","properties":{"kind":"ocean","sort_rank":205,"source":"naturalearthdata.com","min_zoom":0.0,"boundary":true,"id":1150}},{"geometry":{"type":"MultiLineString","coordinates":[[[-90.96,-0.6],[-90.97,-0.58],[-90.95,-0.53],[-90.98,-0.42],[-91.18,-0.22],[-91.21,-0.04],[-91.25,0.0]],[[-91.6,0.0],[-91.59,-0.01],[-91.55,-0.05],[-91.47,-0.01],[-91.43,-0.02],[-91.37,-0.29],[-91.25,-0.37],[-91.2,-0.5],[-91.12,-0.56],[-91.14,-0.62],[-91.33,-0.71],[-91.46,-0.8],[-91.5,-0.86],[-91.48,-0.92],[-91.42,-1.0],[-91.37,-1.02],[-91.13,-1.02],[-90.91,-0.94],[-90.8,-0.75],[-90.86,-0.67],[-90.96,-0.6]]]},"type":"Feature","properties":{"kind":"ocean","sort_rank":205,"source":"naturalearthdata.com","min_zoom":0.0,"boundary":true,"id":1151}},{"geometry":{"type":"LineString","coordinates":[[-90.67,-0.19],[-90.78,-0.16],[-90.82,-0.19],[-90.87,-0.27],[-90.81,-0.33],[-90.62,-0.36],[-90.57,-0.33],[-90.55,-0.28],[-90.67,-0.19]]},"type":"Feature","properties":{"kind":"ocean","sort_rank":205,"source":"naturalearthdata.com","min_zoom":0.0,"boundary":true,"id":1152}},{"geometry":{"type":"LineString","coordinates":[[-109.39,-27.07],[-109.43,-27.12],[-109.43,-27.17],[-109.28,-27.14],[-109.22,-27.1],[-109.28,-27.1],[-109.39,-27.07]]},"type":"Feature","properties":{"kind":"ocean","sort_rank":205,"source":"naturalearthdata.com","min_zoom":0.0,"boundary":true,"id":1153}},{"geometry":{"type":"LineString","coordinates":[[-128.33,-24.32],[-128.35,-24.34],[-128.34,-24.37],[-128.32,-24.4],[-128.3,-24.41],[-128.29,-24.4],[-128.29,-24.36],[-128.3,-24.33],[-128.33,-24.32]]},"type":"Feature","properties":{"kind":"ocean","sort_rank":205,"source":"naturalearthdata.com","min_zoom":0.0,"boundary":true,"id":1422}},{"geometry":{"type":"Point","coordinates":[-120.94,-0.7]},"type":"Feature","properties":{"label_placement":true,"kind":"ocean","name":"Pacific Ocean","sort_rank":200,"source":"openstreetmap.org","min_zoom":0.0,"id":305640005}}]},"buildings":{"type":"FeatureCollection","features":[]},"places":{"type":"FeatureCollection","features":[{"geometry":{"type":"Point","coordinates":[-130.1,-25.07]},"type":"Feature","properties":{"name:cy":"Ynysoedd Pitcairn","name:ko":"\ud54f\ucf00\uc5b8\uc12c","name:kn":"\u0caa\u0cbf\u0c9f\u0ccd\u200c\u0c95\u0cc8\u0cb0\u0ccd\u0ca8\u0ccd \u0ca6\u0ccd\u0cb5\u0cc0\u0caa\u0c97\u0cb3\u0cc1","name:km":"\u1780\u17c4\u17c7\u200b\u1797\u17b8\u178f\u1781\u17b6\u179a\u17b7\u1793","name:cs":"Pitcairnovy ostrovy","name:ki":"Pitkairni","name:ku":"Girav\u00ean Norfolk","name:ti":"\u1352\u1275\u12ab\u12a2\u122d\u1295","name:ks":"\u067e\u0650\u0679\u06a9\u06cc\u0631\u0655\u0646\u06cd \u062c\u0654\u0632\u06cc\u0656\u0631\u0655","name:to":"\u02bbOtumotu Pitikeni","name:ta":"\u0baa\u0bbf\u0b9f\u0bcd\u0b95\u0bc6\u0baf\u0bcd\u0bb0\u0bcd\u0ba9\u0bcd","name:ca":"Illes Pitcairn","name:te":"\u0c2a\u0c3f\u0c1f\u0c4d\u0c15\u0c46\u0c30\u0c4d\u0c28\u0c4d","name:dz":"\u0f54\u0f72\u0f4a\u0f0b\u0f40\u0f7a\u0f0b\u0f61\u0f7a\u0f62\u0f53\u0f0b\u0f42\u0fb3\u0f72\u0f44\u0f0b\u0f5a\u0f7c\u0f58","name:tr":"Pitcairn Adalar\u0131","name:lv":"Pitk\u0113rna","name:lt":"Pitkernas","name:ur":"\u067e\u0679\u06a9\u0627\u0626\u0631\u0646 \u062c\u0632\u0627\u0626\u0631","name:la":"Pitcairn Insulae","name:lg":"Pitikeeni","name:uk":"\u041e\u0441\u0442\u0440\u043e\u0432\u0438 \u041f\u0456\u0442\u043a\u0435\u0440\u043d","name:ln":"Pikairni","name:lo":"\u0eab\u0ea1\u0eb9\u0ec8\u0ec0\u0e81\u0eb2\u0eb0\u0e9e\u0eb4\u0e94\u0ec1\u0e84\u0ea3\u0ecc\u0e99","name:el":"\u039d\u03ae\u03c3\u03bf\u03b9 \u03a0\u03af\u03c4\u03ba\u03b1\u03b9\u03c1\u03bd","name:eo":"Pitkarna Insulo","name":"Pitcairn","name:ee":"Pitkairn \u0192udomekpo nutome","name:th":"\u0e2b\u0e21\u0e39\u0e48\u0e40\u0e01\u0e32\u0e30\u0e1e\u0e34\u0e15\u0e41\u0e04\u0e23\u0e4c\u0e19","name:eu":"Pitcairn uharteak","name:es":"Islas Pitcairn","name:rn":"Pitikeyirini","name:az":"Pitkarn","name:id":"Kepulauan Pitcairn","name:ar":"\u0628\u062a\u0643\u0627\u064a\u0631\u0646","name:am":"\u1352\u1275\u12ab\u12a2\u122d\u1295 \u12a0\u12ed\u1235\u120b\u1295\u12f5","name:it":"Isole Pitcairn","name:ru":"\u041f\u0438\u0442\u043a\u044d\u0440\u043d","name:ab":"Pitcairnove ostrovy","name:zu":"i-Pitcairn Islands","name:zh":"\u76ae\u7279\u51ef\u6069\u7fa4\u5c9b","name:sk":"Pitcairnove ostrovy","name:ja":"\u30d4\u30c8\u30b1\u30a2\u30f3\u8af8\u5cf6","name:si":"\u0db4\u0dd2\u0da7\u0dca\u0d9a\u0dd9\u0dba\u0dca\u0db1\u0dca \u0daf\u0dd6\u0db4\u0dad\u0dca","name:sg":"Pitik\u00earni","name:br":"Inizi Pitcairn","name:bm":"Pitikarini","name:bn":"\u09aa\u09bf\u099f\u0995\u09c7\u09af\u09bc\u09be\u09b0\u09cd\u09a8","name:sw":"Pitkairni","name:be":"\u041f\u0456\u0442\u043a\u0435\u0440\u043d","name:bg":"\u041f\u0438\u0442\u043a\u0430\u0439\u0440\u043d","name:sr":"\u041f\u0438\u0442\u043a\u0435\u0440\u043d","name:pt":"Ilhas Pitcairn","min_zoom":2.0,"name:ro":"Insulele Pitcairn","name:sv":"Pitcairn\u00f6arna","name:or":"\u0b2a\u0b3f\u0b1f\u0b15\u0b3e\u0b07\u0b30\u0b3f\u0b28\u0b4d","name:pl":"Wyspy Pitcairn","source":"openstreetmap.org","name:hi":"\u092a\u093f\u091f\u0915\u0948\u0930\u094d\u0928","name:he":"\u05e4\u05d9\u05d8\u05e7\u05e8\u05df","name:ha":"Pitakarin","name:hu":"Pitcairn-szigetek","name:hr":"Otoci Pitcairn","population":48,"kind":"country","name:yo":"Or\u00edl\u1eb9\u0301\u00e8de Pikarini","alt_name:el":"\u039d\u03b7\u03c3\u03b9\u03ac \u03a0\u03af\u03c4\u03ba\u03b1\u03b9\u03c1\u03bd","name:ms":"Kepulauan Pitcairn","name:mr":"\u092a\u093f\u091f\u0915\u0948\u0930\u094d\u0928","official_name":"Pitcairn, Henderson, Ducie, and Oeno Islands;Pitkern Ailen","name:mg":"Pitkairn","name:vi":"Qu\u1ea7n \u0111\u1ea3o Pitcairn","name:ml":"\u0d2a\u0d3f\u0d31\u0d4d\u0d31\u0d4d\u0d15\u0d46\u0d2f\u0d4d\u0d7b","name:mn":"\u041f\u0438\u0442\u043a\u044d\u0440\u043d \u0410\u0440\u043b\u0443\u0443\u0434","id":1388794217,"name:mk":"\u041f\u0438\u0442\u043a\u0430\u0440\u043d","name:fa":"\u067e\u06cc\u062a\u200c\u06a9\u0631\u0646","name:ff":"Pitkern","name:fr":"\u00celes Pitcairn","name:fy":"de Pitcairneilannen","name:nl":"Pitcairneilanden","name:no":"Pitcairn\u00f8yene","name:ne":"\u092a\u093f\u091f\u0915\u093e\u0907\u0930\u094d\u0928 \u091f\u093e\u092a\u0941","name:ga":"Oile\u00e1n Pitcairn","name:gd":"Eilean Pitcairn","name:gl":"Illas Pitcairn","name:gv":"Ellanyn Pitcairn","name:gu":"\u0aaa\u0ac0\u0a9f\u0a95\u0ac8\u0ab0\u0acd\u0aa8"}}]},"transit":{"type":"FeatureCollection","features":[]},"pois":{"type":"FeatureCollection","features":[]},"boundaries":{"type":"FeatureCollection","features":[]},"roads":{"type":"FeatureCollection","features":[]},"earth":{"type":"FeatureCollection","features":[{"geometry":{"type":"MultiPolygon","coordinates":[[[[-90.33,-0.77],[-90.39,-0.77],[-90.54,-0.68],[-90.53,-0.58],[-90.47,-0.52],[-90.27,-0.48],[-90.19,-0.54],[-90.19,-0.66],[-90.26,-0.74],[-90.32,-0.76],[-90.33,-0.77]]],[[[-91.43,-0.46],[-91.53,-0.48],[-91.61,-0.44],[-91.65,-0.39],[-91.65,-0.31],[-91.65,-0.28],[-91.46,-0.26],[-91.4,-0.32],[-91.4,-0.42],[-91.43,-0.46]]],[[[-90.57,-0.33],[-90.62,-0.36],[-90.81,-0.33],[-90.87,-0.27],[-90.82,-0.19],[-90.78,-0.16],[-90.67,-0.19],[-90.55,-0.28],[-90.57,-0.33]]],[[[-91.25,0.0],[-91.21,-0.04],[-91.18,-0.22],[-90.98,-0.42],[-90.95,-0.53],[-90.97,-0.58],[-90.96,-0.6],[-90.86,-0.67],[-90.8,-0.75],[-90.91,-0.94],[-91.13,-1.02],[-91.37,-1.02],[-91.42,-1.0],[-91.48,-0.92],[-91.5,-0.86],[-91.46,-0.8],[-91.33,-0.71],[-91.14,-0.62],[-91.12,-0.56],[-91.2,-0.5],[-91.25,-0.37],[-91.37,-0.29],[-91.43,-0.02],[-91.47,-0.01],[-91.55,-0.05],[-91.59,-0.01],[-91.6,0.0],[-91.25,0.0]]]]},"type":"Feature","properties":{"sort_rank":10,"source":"naturalearthdata.com","min_zoom":0.0,"kind":"earth","area":6634483866}}]},"landuse":{"type":"FeatureCollection","features":[]}}