{"water":{"type":"FeatureCollection","features":[{"geometry":{"type":"Polygon","coordinates":[[[0.0,-66.51],[-45.0,-66.51],[-45.0,-40.98],[0.0,-40.98],[0.0,-66.51]],[[-37.69,-54.13],[-37.63,-54.17],[-37.5,-54.16],[-37.16,-54.27],[-37.08,-54.31],[-37.01,-54.34],[-36.89,-54.34],[-36.85,-54.37],[-36.82,-54.4],[-36.73,-54.47],[-36.63,-54.5],[-36.51,-54.51],[-36.47,-54.53],[-36.45,-54.57],[-36.31,-54.69],[-36.25,-54.78],[-36.12,-54.85],[-36.09,-54.87],[-35.94,-54.83],[-35.87,-54.79],[-35.8,-54.76],[-35.91,-54.71],[-35.92,-54.64],[-35.9,-54.55],[-35.96,-54.57],[-36.03,-54.57],[-36.07,-54.55],[-36.12,-54.46],[-36.17,-54.38],[-36.24,-54.36],[-36.29,-54.29],[-36.33,-54.25],[-36.39,-54.28],[-36.41,-54.3],[-36.45,-54.31],[-36.54,-54.25],[-36.65,-54.26],[-36.61,-54.19],[-36.7,-54.11],[-36.76,-54.11],[-36.81,-54.1],[-36.85,-54.09],[-36.93,-54.08],[-37.01,-54.11],[-37.1,-54.07],[-37.23,-54.06],[-37.37,-54.01],[-37.38,-53.98],[-37.54,-53.99],[-37.95,-54.0],[-38.02,-54.01],[-37.91,-54.03],[-37.62,-54.04],[-37.69,-54.08],[-37.69,-54.13]],[[-26.42,-58.44],[-26.26,-58.49],[-26.26,-58.44],[-26.28,-58.4],[-26.3,-58.38],[-26.4,-58.38],[-26.45,-58.42],[-26.42,-58.44]]]},"type":"Feature","properties":{"source":"naturalearthdata.com","kind":"ocean","area":1444195503964160,"sort_rank":200,"min_zoom":0.0,"id":1}},{"geometry":{"type":"LineString","coordinates":[[-35.9,-54.55],[-35.96,-54.57],[-36.03,-54.57],[-36.07,-54.55],[-36.12,-54.46],[-36.17,-54.38],[-36.24,-54.36],[-36.29,-54.29],[-36.33,-54.25],[-36.39,-54.28],[-36.41,-54.3],[-36.45,-54.31],[-36.54,-54.25],[-36.65,-54.26],[-36.61,-54.19],[-36.7,-54.11],[-36.76,-54.11],[-36.81,-54.1],[-36.85,-54.09],[-36.93,-54.08],[-37.01,-54.11],[-37.1,-54.07],[-37.23,-54.06],[-37.37,-54.01],[-37.38,-53.98],[-37.54,-53.99],[-37.95,-54.0],[-38.02,-54.01],[-37.91,-54.03],[-37.62,-54.04],[-37.69,-54.08],[-37.69,-54.13],[-37.63,-54.17],[-37.5,-54.16],[-37.16,-54.27],[-37.08,-54.31],[-37.01,-54.34],[-36.89,-54.34],[-36.85,-54.37],[-36.82,-54.4],[-36.73,-54.47],[-36.63,-54.5],[-36.51,-54.51],[-36.47,-54.53],[-36.45,-54.57],[-36.31,-54.69],[-36.25,-54.78],[-36.12,-54.85],[-36.09,-54.87],[-35.94,-54.83],[-35.87,-54.79],[-35.8,-54.76],[-35.91,-54.71],[-35.92,-54.64],[-35.9,-54.55]]},"type":"Feature","properties":{"kind":"ocean","sort_rank":205,"source":"naturalearthdata.com","min_zoom":0.0,"boundary":true,"id":63}},{"geometry":{"type":"LineString","coordinates":[[-26.3,-58.38],[-26.4,-58.38],[-26.45,-58.42],[-26.42,-58.44],[-26.26,-58.49],[-26.26,-58.44],[-26.28,-58.4],[-26.3,-58.38]]},"type":"Feature","properties":{"kind":"ocean","sort_rank":205,"source":"naturalearthdata.com","min_zoom":0.0,"boundary":true,"id":316}},{"geometry":{"type":"Point","coordinates":[-41.57,-57.68]},"type":"Feature","properties":{"label_placement":true,"kind":"sea","name":"Scotia Sea","sort_rank":200,"source":"openstreetmap.org","min_zoom":3.0,"id":305639392}},{"geometry":{"type":"Point","coordinates":[-15.0,-45.0]},"type":"Feature","properties":{"label_placement":true,"kind":"sea","name":"South Atlantic Ocean","sort_rank":200,"source":"openstreetmap.org","min_zoom":3.0,"id":305640288}}]},"buildings":{"type":"FeatureCollection","features":[]},"places":{"type":"FeatureCollection","features":[{"geometry":{"type":"Point","coordinates":[-35.81,-54.84]},"type":"Feature","properties":{"name:cy":"Ynysoedd De Georgia a De Sandwich","name:ko":"\uc0ac\uc6b0\uc2a4\uc870\uc9c0\uc544 \uc0ac\uc6b0\uc2a4\uc0cc\ub4dc\uc704\uce58 \uc81c\ub3c4","name:kn":"\u0ca6\u0c95\u0ccd\u0cb7\u0cbf\u0ca3 \u0c9c\u0cbe\u0cb0\u0ccd\u0c9c\u0cbf\u0caf\u0cbe \u0cae\u0ca4\u0ccd\u0ca4\u0cc1 \u0ca6\u0c95\u0ccd\u0cb7\u0cbf\u0ca3 \u0cb8\u0ccd\u0caf\u0cbe\u0c82\u0ca1\u0ccd\u0cb5\u0cbf\u0c9a\u0ccd \u0ca6\u0ccd\u0cb5\u0cc0\u0caa\u0c97\u0cb3\u0cc1","name:km":"\u1780\u17c4\u17c7\u200b\u17a0\u17d2\u179f\u1780\u17a0\u17d2\u179f\u17ca\u17b8\u200b\u1781\u17b6\u1784\u200b\u178f\u17d2\u1794\u17bc\u1784 \u1793\u17b7\u1784\u200b\u179f\u17b6\u1793\u17cb\u179c\u17b7\u1785\u200b\u1781\u17b6\u1784\u200b\u178f\u17d2\u1794\u17bc\u1784","name:cs":"Ji\u017en\u00ed Georgie a Ji\u017en\u00ed Sandwichovy ostrovy","name:tt":"\u041a\u04e9\u043d\u044c\u044f\u043a \u0413\u0435\u043e\u0440\u0433\u0438\u044f \u04bb\u04d9\u043c \u041a\u04e9\u043d\u044c\u044f\u043a \u0421\u0430\u043d\u0434\u0432\u0438\u0447 \u0443\u0442\u0440\u0430\u0443\u043b\u0430\u0440\u044b","name:kw":"Jeorji Dheghow hag Ynysow Sandwich Deghow","name:ku":"Georgiaya Ba\u015f\u00fbr \u00fb girav\u00ean Sandwich\u00ea y\u00ean Ba\u015f\u00fbr","name:ti":"\u12f0\u1261\u1265 \u1306\u122d\u1302\u12eb \u12a5\u1293 \u12e8\u12f0\u1261\u12f5 \u1233\u1295\u12f5\u12ca\u127d \u12f0\u1234\u1276\u127d","name:ks":"\u062c\u0646\u0648\u0657\u0628\u06cc \u062c\u0627\u0631\u062c\u0650\u06cc\u0627 \u062a\u06c1\u0655 \u062c\u0646\u0648\u0657\u0628\u06cc \u0633\u06cc\u0646\u065b\u0691\u0648\u0655\u0686 \u062c\u0654\u0632\u06cc\u0656\u0631\u0655","name:to":"\u02bbOtumotu Siosia-tonga mo Saniuisi-tonga","name:ta":"\u0ba4\u0bc6\u0bb1\u0bcd\u0b95\u0bc1 \u0baf\u0bcb\u0bb0\u0bcd\u0b9a\u0bbf\u0baf\u0bbe \u0bae\u0bb1\u0bcd\u0bb1\u0bc1\u0bae\u0bcd \u0ba4\u0bc6\u0bb1\u0bcd\u0b95\u0bc1 \u0b9a\u0ba3\u0bcd\u0b9f\u0bcd\u0bb5\u0bbf\u0b9a\u0bcd \u0ba4\u0bc0\u0bb5\u0bc1\u0b95\u0bb3\u0bcd","name:ca":"Illes Ge\u00f2rgia del Sud i Sandwich del Sud","name:te":"\u0c26\u0c15\u0c4d\u0c37\u0c3f\u0c23 \u0c1c\u0c3e\u0c30\u0c4d\u0c1c\u0c3f\u0c2f\u0c3e \u0c2e\u0c30\u0c3f\u0c2f\u0c41 \u0c26\u0c15\u0c4d\u0c37\u0c3f\u0c23 \u0c38\u0c3e\u0c02\u0c21\u0c4d\u0c35\u0c3f\u0c1a\u0c4d \u0c26\u0c40\u0c35\u0c41\u0c32\u0c41","name:ka":"\u10e1\u10d0\u10db\u10ee\u10e0\u10d4\u10d7\u10d8 \u10ef\u10dd\u10e0\u10ef\u10d8\u10d0 \u10d3\u10d0 \u10e1\u10d0\u10db\u10ee\u10e0\u10d4\u10d7 \u10e1\u10d4\u10dc\u10d3\u10d5\u10d8\u10e9\u10d8\u10e1 \u10d9\u10e3\u10dc\u10eb\u10e3\u10da\u10d4\u10d1\u10d8","name:da":"Sydgeorgien og Sydsandwich\u00f8erne","name:de":"S\u00fcdgeorgien und die S\u00fcdlichen Sandwichinseln","name:dz":"\u0f66\u0f71\u0f60\u0f74\u0f50\u0f0b\u0f47\u0f7d\u0f62\u0f0b\u0f47\u0f71\u0f0b \u0f51\u0f44\u0f0b \u0f66\u0f71\u0f60\u0f74\u0f50\u0f0b\u0f66\u0f7a\u0f53\u0f4c\u0f84\u0f0b\u0f5d\u0f72\u0f45\u0f0b\u0f42\u0fb3\u0f72\u0f44\u0f0b\u0f5a\u0f7c\u0f58","source":"openstreetmap.org","name:lv":"Dienvidd\u017eord\u017eija un Dienvidsendvi\u010du salas","name:lt":"Piet\u0173 D\u017eord\u017eija ir Piet\u0173 Sandvi\u010do salos","name:ur":"\u062c\u0646\u0648\u0628\u06cc \u062c\u0627\u0631\u062c\u06cc\u0627 \u0627\u0648\u0631 \u062c\u0646\u0648\u0628\u06cc \u0633\u06cc\u0646\u0688\u0648\u0686 \u062c\u0632\u0627\u0626\u0631","name:uk":"\u041f\u0456\u0432\u0434\u0435\u043d\u043d\u0430 \u0414\u0436\u043e\u0440\u0434\u0436\u0456\u044f \u0442\u0430 \u041f\u0456\u0432\u0434\u0435\u043d\u043d\u0456 \u0421\u0430\u043d\u0434\u0432\u0456\u0447\u0435\u0432\u0456 \u043e\u0441\u0442\u0440\u043e\u0432\u0438","name:lo":"\u0ec0\u0e81\u0eb2\u0eb0\u0e88\u0ead\u0e94\u0ec0\u0e88\u0e8d\u0ec3\u0e95\u0ec9\u0ec1\u0ea5\u0eb0\u0eab\u0ea1\u0eb9\u0ec8\u0ec0\u0e81\u0eb2\u0eb0\u0ec1\u0e8a\u0e99\u0ea7\u0eb4\u0e94\u0e95\u0ead\u0e99\u0ec3\u0e95\u0ec9","name:el":"\u039d\u03ae\u03c3\u03bf\u03b9 \u039d\u03cc\u03c4\u03b9\u03bf\u03c2 \u0393\u03b5\u03c9\u03c1\u03b3\u03af\u03b1 \u03ba\u03b1\u03b9 \u039d\u03cc\u03c4\u03b9\u03bf\u03b9 \u03a3\u03ac\u03bd\u03c4\u03bf\u03c5\u03b9\u03c4\u03c2","name:eo":"Sud-Georgio kaj Sud-Sandvi\u0109insuloj","name":"South Georgia and South Sandwich Islands","name:ee":"Anyiehe Georgia kple Anyiehe Sandwich \u0192udomekpowo nutome","name:th":"\u0e40\u0e01\u0e32\u0e30\u0e40\u0e0b\u0e32\u0e17\u0e4c\u0e08\u0e2d\u0e23\u0e4c\u0e40\u0e08\u0e35\u0e22\u0e41\u0e25\u0e30\u0e2b\u0e21\u0e39\u0e48\u0e40\u0e01\u0e32\u0e30\u0e40\u0e0b\u0e32\u0e17\u0e4c\u0e41\u0e0b\u0e19\u0e14\u0e4c\u0e27\u0e34\u0e0a","name:eu":"Hegoaldeko Georgiak eta Hegoaldeko Sandwich uharteak","name:et":"L\u00f5una-Georgia ja L\u00f5una-Sandwichi saared","name:es":"Islas Georgias del Sur y Sandwich del Sur","name:rm":"Georgia dal Sid e las Inslas Sandwich dal Sid","name:az":"C\u0259nub G\u00fcrc\u00fcstan v\u0259 C\u0259nub Sandvil\u00e7 Adalar\u0131","name:id":"Georgia Selatan dan Kepulauan Sandwich Selatan","name:ar":"\u062c\u0632\u0631 \u062c\u0648\u0631\u062c\u064a\u0627 \u0627\u0644\u062c\u0646\u0648\u0628\u064a\u0629 \u0648\u0633\u0627\u0646\u062f\u0648\u064a\u062a\u0634 \u0627\u0644\u062c\u0646\u0648\u0628\u064a\u0629","name:is":"Su\u00f0ur-Georg\u00eda og Su\u00f0ur-Sandv\u00edkureyjar","name:am":"\u12f0\u1261\u1265 \u1306\u122d\u1302\u12eb \u12a5\u1293 \u12e8\u12f0\u1261\u1265 \u1233\u1295\u12f5\u12ca\u127d \u12f0\u1234\u1276\u127d","name:it":"Georgia del Sud e isole Sandwich meridionali","name:ru":"\u042e\u0436\u043d\u0430\u044f \u0413\u0435\u043e\u0440\u0433\u0438\u044f \u0438 \u042e\u0436\u043d\u044b\u0435 \u0421\u0430\u043d\u0434\u0432\u0438\u0447\u0435\u0432\u044b \u041e\u0441\u0442\u0440\u043e\u0432\u0430","name:af":"Suid-Georgi\u00eb en die Suidelike Sandwich-eilande","name:zu":"i-South Georgia ne-South Sandwich Islands","name:zh":"\u5357\u55ac\u6cbb\u4e9e\u5cf6\u8207\u5357\u6851\u5a01\u5947\u7fa4\u5cf6","name:sl":"Ju\u017ena Georgia in Ju\u017eni Sandwichevi otoki","name:sk":"Ju\u017en\u00e1 Georgia a Ju\u017en\u00e9 Sandwichove ostrovy","name:ja":"\u30b5\u30a6\u30b9\u30b8\u30e7\u30fc\u30b8\u30a2\u30fb\u30b5\u30a6\u30b9\u30b5\u30f3\u30c9\u30a6\u30a3\u30c3\u30c1\u8af8\u5cf6","name:si":"\u0daf\u0d9a\u0dd4\u0dab\u0dd4 \u0da2\u0ddd\u0dbb\u0dca\u0da2\u0dd2\u0dba\u0dcf\u0dc0 \u0dc3\u0dc4 \u0daf\u0d9a\u0dd4\u0dab\u0dd4 \u0dc3\u0dd0\u0db1\u0dca\u0da9\u0dca\u0dd2\u0da0\u0dca \u0daf\u0dd6\u0db4\u0dad\u0dca","name:se":"Lulli Georgia ja Lulli Sandwich-sullot","name:br":"Jorjia ar Su hag Inizi Sandwich ar Su","name:bs":"Ju\u017ena D\u017eord\u017eija i Ju\u017ena Sendvi\u010dka Ostrva","name:bn":"\u09a6\u0995\u09cd\u09b7\u09bf\u09a3 \u099c\u09b0\u09cd\u099c\u09bf\u09af\u09bc\u09be \u0993 \u09a6\u0995\u09cd\u09b7\u09bf\u09a3 \u09b8\u09cd\u09af\u09be\u09a8\u09cd\u09a1\u0989\u0987\u099a \u09a6\u09cd\u09ac\u09c0\u09aa\u09aa\u09c1\u099e","name:sw":"Jojia Kusini na Visiwa vya Sandwich Kusini","name:be":"\u041f\u0430\u045e\u0434\u043d\u0451\u0432\u0430\u044f \u0413\u0435\u043e\u0440\u0433\u0456\u044f \u0456 \u041f\u0430\u045e\u0434\u043d\u0451\u0432\u044b\u044f \u0421\u044d\u043d\u0434\u0432\u0456\u0447\u0430\u0432\u044b \u0430\u0441\u0442\u0440\u0430\u0432\u044b","name:bg":"\u042e\u0436\u043d\u0430 \u0414\u0436\u043e\u0440\u0434\u0436\u0438\u044f \u0438 \u042e\u0436\u043d\u0438 \u0421\u0430\u043d\u0434\u0432\u0438\u0447\u0435\u0432\u0438 \u043e\u0441\u0442\u0440\u043e\u0432\u0438","name:sr":"\u0408\u0443\u0436\u043d\u0430 \u040f\u043e\u0440\u045f\u0438\u0458\u0430 \u0438 \u0408\u0443\u0436\u043d\u0430 \u0421\u0435\u043d\u0434\u0432\u0438\u0447\u043a\u0430 \u041e\u0441\u0442\u0440\u0432\u0430","name:sq":"Gjeorgjia Jugore dhe Ishujt Jugor\u00eb Sandui\u00e7","name:pt":"Ilhas Ge\u00f3rgia do Sul e Sandwich do Sul","alt_name:el":"\u039d\u03ae\u03c3\u03bf\u03b9 \u039d\u03cc\u03c4\u03b9\u03b1 \u0393\u03b5\u03c9\u03c1\u03b3\u03af\u03b1 \u03ba\u03b1\u03b9 \u039d\u03cc\u03c4\u03b9\u03b5\u03c2 \u03a3\u03ac\u03bd\u03c4\u03bf\u03c5\u03b9\u03c4\u03c2;\u039d\u03b7\u03c3\u03b9\u03ac \u039d\u03cc\u03c4\u03b9\u03b1 \u0393\u03b5\u03c9\u03c1\u03b3\u03af\u03b1 \u03ba\u03b1\u03b9 \u039d\u03cc\u03c4\u03b9\u03b5\u03c2 \u03a3\u03ac\u03bd\u03c4\u03bf\u03c5\u03b9\u03c4\u03c2;\u039d\u03b7\u03c3\u03b9\u03ac \u039d\u03cc\u03c4\u03b9\u03b1 \u0393\u03b5\u03c9\u03c1\u03b3\u03af\u03b1 \u03ba\u03b1\u03b9 \u039d\u03cc\u03c4\u03b9\u03bf\u03b9 \u03a3\u03ac\u03bd\u03c4\u03bf\u03c5\u03b9\u03c4\u03c2","min_zoom":2.0,"name:ro":"Georgia de Sud \u015fi Insulele Sandwich de Sud","name:sv":"Sydgeorgien och Sydsandwich\u00f6arna","name:os":"\u0425\u0443\u0441\u0441\u0430\u0440 \u0414\u0436\u043e\u0440\u0434\u0436\u0438 \u00e6\u043c\u00e6 \u0425\u0443\u0441\u0441\u0430\u0440 \u0421\u0430\u043d\u0434\u0432\u0438\u0447\u044b \u0441\u0430\u043a\u044a\u0430\u0434\u00e6\u0445\u0442\u00e6","name:or":"\u0b26\u0b15\u0b4d\u0b37\u0b3f\u0b23 \u0b1c\u0b30\u0b4d\u0b1c\u0b3f\u0b06 \u0b0f\u0b2c\u0b02 \u0b26\u0b15\u0b4d\u0b37\u0b3f\u0b23 \u0b38\u0b3e\u0b23\u0b4d\u0b21\u0b71\u0b3f\u0b1a\u0b4d \u0b26\u0b4d\u0b2c\u0b40\u0b2a\u0b2a\u0b41\u0b1e\u0b4d\u0b1c","name:pl":"Georgia Po\u0142udniowa i Sandwich Po\u0142udniowy","name:tr":"G\u00fcney Georgia ve G\u00fcney Sandwich Adalar\u0131","name:hi":"\u0926\u0915\u094d\u0937\u093f\u0923 \u091c\u094b\u0930\u094d\u091c\u093f\u092f\u093e \u0914\u0930 \u0926\u0915\u094d\u0937\u093f\u0923 \u0938\u0948\u0902\u0921\u0935\u093f\u091a \u0926\u094d\u0935\u0940\u092a\u0938\u092e\u0942\u0939","name:he":"\u05d2\u05f3\u05d5\u05e8\u05d2\u05f3\u05d9\u05d4 \u05d4\u05d3\u05e8\u05d5\u05de\u05d9\u05ea \u05d5\u05d0\u05d9\u05d9 \u05e1\u05e0\u05d3\u05d5\u05d5\u05d9\u05e5\u05f3 \u05d4\u05d3\u05e8\u05d5\u05de\u05d9\u05d9\u05dd","name:hu":"D\u00e9li-Georgia \u00e9s D\u00e9li-Sandwich-szigetek","name:hr":"Ju\u017ena Georgija i oto\u010dje Ju\u017eni Sandwich","population":3,"kind":"country","name:mt":"South Georgia and the South Sandwich Islands","name:ms":"Georgia Selatan dan Kepulauan Sandwich Selatan","name:mr":"\u0938\u093e\u0909\u0925 \u091c\u0949\u0930\u094d\u091c\u093f\u092f\u093e \u0935 \u0938\u093e\u0909\u0925 \u0938\u0901\u0921\u0935\u093f\u091a \u0926\u094d\u0935\u0940\u092a\u0938\u092e\u0942\u0939","name:my":"\u1010\u1031\u102c\u1004\u103a \u1002\u103b\u1031\u102c\u103a\u1002\u103b\u102e\u101a\u102c \u1014\u103e\u1004\u1037\u103a \u1010\u1031\u102c\u1004\u103a \u1006\u1004\u103a\u1038\u1012\u101d\u1005\u103a\u1002\u103b\u103a \u1000\u103b\u103d\u1014\u103a\u1038\u1005\u102f\u1019\u103b\u102c\u1038","name:ml":"\u0d26\u0d15\u0d4d\u0d37\u0d3f\u0d23 \u0d1c\u0d4b\u0d7c\u0d1c\u0d4d\u0d1c\u0d3f\u0d2f\u0d2f\u0d41\u0d02 \u0d26\u0d15\u0d4d\u0d37\u0d3f\u0d23 \u0d38\u0d3e\u0d7b\u0d21\u0d4d\u200c\u0d35\u0d3f\u0d1a\u0d4d\u0d1a\u0d4d \u0d26\u0d4d\u0d35\u0d40\u0d2a\u0d41\u0d15\u0d33\u0d41\u0d02","name:vi":"Qu\u1ea7n \u0111\u1ea3o Nam Georgia v\u00e0 Nam Sandwich","name:mn":"\u04e8\u043c\u043d\u04e9\u0434 \u0416\u043e\u0440\u0436\u0438\u0430 \u0431\u0430 \u04e8\u043c\u043d\u04e9\u0434 \u0421\u044d\u043d\u0434\u0432\u0438\u0447\u0438\u0439\u043d \u0410\u0440\u043b\u0443\u0443\u0434","id":249399339,"name:mk":"\u0408\u0443\u0436\u043d\u0430 \u0413\u0440\u0443\u0437\u0438\u0458\u0430 \u0438 \u0408\u0443\u0436\u043d\u0438 \u0421\u0435\u043d\u0434\u0432\u0438\u0447 \u041e\u0441\u0442\u0440\u043e\u0432\u0438","name:fa":"\u062c\u0632\u0627\u06cc\u0631 \u062c\u0648\u0631\u062c\u06cc\u0627\u06cc \u062c\u0646\u0648\u0628\u06cc \u0648 \u0633\u0627\u0646\u062f\u0648\u06cc\u0686 \u062c\u0646\u0648\u0628\u06cc","name:fi":"Etel\u00e4-Georgia ja Etel\u00e4iset Sandwichsaaret","name:fo":"Su\u00f0urgeorgia","name:fr":"G\u00e9orgie du Sud-et-les \u00celes Sandwich du Sud","name:fy":"S\u00fad-Ge\u00f6rgje en de S\u00fadlike Sandwicheilannen","name:nl":"Zuid-Georgi\u00eb en de Zuidelijke Sandwicheilanden","name:nn":"S\u00f8r-Georgia og S\u00f8r-Sandwich\u00f8yane","name:no":"S\u00f8r-Georgia og S\u00f8r-Sandwich\u00f8yene","name:ne":"\u0926\u0915\u094d\u0937\u093f\u0923 \u091c\u0930\u094d\u091c\u093f\u092f\u093e \u0930 \u0926\u0915\u094d\u0937\u093f\u0923 \u0938\u094d\u092f\u093e\u0928\u094d\u0921\u0935\u0940\u091a \u091f\u093e\u092a\u0941\u0939\u0930\u0942","name:wo":"Jeoorji gu B\u00ebj-saalum ak Duni Islaand yi B\u00ebj-saalum","name:ga":"An tSeoirsia Theas agus Oile\u00e1in Sandwich Theas","name:gd":"Se\u00f2irsia-a-Deas is na h-Eileanan Shandwich-a-Deas","name:gl":"Illas Xeorxia do Sur e Sandwich do Sur","name:gv":"Georgia Yiass as Ellanyn Sandwich Yiass","name:gu":"\u0aa6\u0a95\u0acd\u0ab7\u0abf\u0aa3 \u0a9c\u0acd\u0aaf\u0acb\u0ab0\u0acd\u0a9c\u0ac0\u0aaf\u0abe \u0a85\u0aa8\u0ac7 \u0aa6\u0a95\u0acd\u0ab7\u0abf\u0aa3 \u0ab8\u0ac7\u0aa8\u0acd\u0aa1\u0ab5\u0abf\u0a9a \u0a86\u0a87\u0ab2\u0ac7\u0aa8\u0acd\u0aa1"}}]},"transit":{"type":"FeatureCollection","features":[]},"pois":{"type":"FeatureCollection","features":[]},"boundaries":{"type":"FeatureCollection","features":[]},"roads":{"type":"FeatureCollection","features":[]},"earth":{"type":"FeatureCollection","features":[{"geometry":{"type":"Polygon","coordinates":[[[-37.1,-54.07],[-37.01,-54.11],[-36.93,-54.08],[-36.85,-54.09],[-36.81,-54.1],[-36.76,-54.11],[-36.7,-54.11],[-36.61,-54.19],[-36.65,-54.26],[-36.54,-54.25],[-36.45,-54.31],[-36.41,-54.3],[-36.39,-54.28],[-36.33,-54.25],[-36.29,-54.29],[-36.24,-54.36],[-36.17,-54.38],[-36.12,-54.46],[-36.07,-54.55],[-36.03,-54.57],[-35.96,-54.57],[-35.9,-54.55],[-35.92,-54.64],[-35.91,-54.71],[-35.8,-54.76],[-35.87,-54.79],[-35.94,-54.83],[-36.09,-54.87],[-36.12,-54.85],[-36.25,-54.78],[-36.31,-54.69],[-36.45,-54.57],[-36.47,-54.53],[-36.51,-54.51],[-36.63,-54.5],[-36.73,-54.47],[-36.82,-54.4],[-36.85,-54.37],[-36.89,-54.34],[-37.01,-54.34],[-37.08,-54.31],[-37.16,-54.27],[-37.5,-54.16],[-37.63,-54.17],[-37.69,-54.13],[-37.69,-54.08],[-37.62,-54.04],[-37.91,-54.03],[-38.02,-54.01],[-37.95,-54.0],[-37.54,-53.99],[-37.38,-53.98],[-37.37,-54.01],[-37.23,-54.06],[-37.1,-54.07]]]},"type":"Feature","properties":{"sort_rank":10,"source":"naturalearthdata.com","min_zoom":0.0,"kind":"earth","area":10889033834}}]},"landuse":{"type":"FeatureCollection","features":[]}}